NORAD_CAT_ID,OBJECT_NAME,OBJECT_TYPE,EPOCH,MEAN_MOTION,ECCENTRICITY,INCLINATION,RA_OF_ASC_NODE,ARG_OF_PERICENTER,MEAN_ANOMALY,BSTAR,MEAN_MOTION_DOT,MEAN_MOTION_DDOT,TLE_LINE0,TLE_LINE1,TLE_LINE2,SEMIMAJOR_AXIS,PERIOD,APOGEE,PERIGEE,DECAYED
55929.0,STARLINK-5898,PAYLOAD,2024-08-01 15:03:44,14.98349272,0.0003111,70.0025,339.4794,268.7861,91.2942,0.00042592,4.995e-05,0.0,0 STARLINK-5898,1 55929U 23037R   24214.62759665  .00004995  00000-0  42592-3 0  9996,2 55929  70.0025 339.4794 0003111 268.7861  91.2942 14.98349272 75850,6950.133,96.106,574.16,569.836,0.0
55929.0,STARLINK-5898,PAYLOAD,2024-08-01 18:16:00,14.98358565,0.0003093,70.0028,339.1427,268.5926,91.4878,0.00083978,9.949e-05,0.0,0 STARLINK-5898,1 55929U 23037R   24214.76111528  .00009949  00000-0  83978-3 0  9998,2 55929  70.0028 339.1427 0003093 268.5926  91.4878 14.98358565 75879,6950.105,96.105,574.119,569.82,0.0
55929.0,STARLINK-5898,PAYLOAD,2024-08-02 13:29:37,14.98334561,0.0002589,70.0032,337.121,264.7203,95.366,-0.00017995,-2.24e-05,0.0,0 STARLINK-5898,1 55929U 23037R   24215.56223982 -.00002240  00000-0 -17995-3 0  9990,2 55929  70.0032 337.1210 0002589 264.7203  95.3660 14.98334561 76331,6950.179,96.107,573.843,570.244,0.0
55929.0,STARLINK-5898,PAYLOAD,2024-08-02 15:05:45,14.98329021,0.0003148,70.0033,336.9558,270.6774,89.4024,-0.00015308,-1.919e-05,0.0,0 STARLINK-5898,1 55929U 23037R   24215.62900309 -.00001919  00000-0 -15308-3 0  9990,2 55929  70.0033 336.9558 0003148 270.6774  89.4024 14.98329021 76002,6950.196,96.107,574.249,569.873,0.0
55929.0,STARLINK-5898,PAYLOAD,2024-08-02 18:18:02,14.98330192,0.0003098,70.0033,336.6191,270.6398,89.4406,-2.8366e-05,-4.31e-06,0.0,0 STARLINK-5898,1 55929U 23037R   24215.76252371 -.00000431  00000-0 -28366-4 0  9991,2 55929  70.0033 336.6191 0003098 270.6398  89.4406 14.98330192 76025,6950.192,96.107,574.21,569.904,0.0
55929.0,STARLINK-5898,PAYLOAD,2024-08-03 15:07:46,14.98340645,0.0002939,70.0036,334.431,269.1394,90.9429,0.00025437,2.944e-05,0.0,0 STARLINK-5898,1 55929U 23037R   24216.63039908  .00002944  00000-0  25437-3 0  9991,2 55929  70.0036 334.4310 0002939 269.1394  90.9429 14.98340645 76159,6950.16,96.106,574.068,569.982,0.0
55929.0,STARLINK-5898,PAYLOAD,2024-08-03 18:20:02,14.98346047,0.0003035,70.0036,334.0943,271.2316,88.8495,0.00039068,4.574e-05,0.0,0 STARLINK-5898,1 55929U 23037R   24216.76391632  .00004574  00000-0  39068-3 0  9996,2 55929  70.0036 334.0943 0003035 271.2316  88.8495 14.98346047 76514,6950.143,96.106,574.118,569.899,0.0
55929.0,STARLINK-5898,PAYLOAD,2024-08-04 13:33:39,14.98327369,0.0002604,70.0044,332.0744,268.3384,91.7477,0.00017754,2.026e-05,0.0,0 STARLINK-5898,1 55929U 23037R   24217.56504460  .00002026  00000-0  17754-3 0  9998,2 55929  70.0044 332.0744 0002604 268.3384  91.7477 14.98327369 76635,6950.201,96.107,573.876,570.256,0.0
55929.0,STARLINK-5898,PAYLOAD,2024-08-04 16:45:56,14.98324379,0.0002473,70.003,331.7382,264.3608,95.7269,0.00020491,2.352e-05,0.0,0 STARLINK-5898,1 55929U 23037R   24217.69856612  .00002352  00000-0  20491-3 0  9995,2 55929  70.0030 331.7382 0002473 264.3608  95.7269 14.98324379 76319,6950.21,96.107,573.794,570.356,0.0
55929.0,STARLINK-5898,PAYLOAD,2024-08-05 00:46:35,14.98339994,0.0002843,70.0021,330.8966,272.4095,87.6739,0.00024063,2.78e-05,0.0,0 STARLINK-5898,1 55929U 23037R   24218.03235570  .00002780  00000-0  24063-3 0  9992,2 55929  70.0021 330.8966 0002843 272.4095  87.6739 14.98339994 76702,6950.162,96.106,574.003,570.051,0.0
55929.0,STARLINK-5898,PAYLOAD,2024-08-05 16:47:55,14.983444,0.0002793,70.0042,329.2134,267.7778,92.3061,0.00029891,3.477e-05,0.0,0 STARLINK-5898,1 55929U 23037R   24218.69995264  .00003477  00000-0  29891-3 0  9995,2 55929  70.0042 329.2134 0002793 267.7778  92.3061 14.98344400 76465,6950.148,96.106,573.955,570.072,0.0
55929.0,STARLINK-5898,PAYLOAD,2024-08-06 13:37:41,14.98321863,0.0003042,70.0037,327.0255,265.7283,94.3528,-0.00012756,-1.614e-05,0.0,0 STARLINK-5898,1 55929U 23037R   24219.56784413 -.00001614  00000-0 -12756-3 0  9999,2 55929  70.0037 327.0255 0003042 265.7283  94.3528 14.98321863 76936,6950.218,96.108,574.197,569.969,0.0
55929.0,STARLINK-5898,PAYLOAD,2024-08-06 16:49:57,14.98321951,0.0003071,70.0039,326.6889,265.9062,94.1746,-0.00012524,-1.587e-05,0.0,0 STARLINK-5898,1 55929U 23037R   24219.70136406 -.00001587  00000-0 -12524-3 0  9990,2 55929  70.0039 326.6889 0003071 265.9062  94.1746 14.98321951 76618,6950.218,96.108,574.217,569.948,0.0
55929.0,STARLINK-5898,PAYLOAD,2024-08-07 12:03:36,14.98307798,0.0002763,70.0042,324.672,263.038,97.0465,-0.00024287,-2.988e-05,0.0,0 STARLINK-5898,1 55929U 23037R   24220.50250402 -.00002988  00000-0 -24287-3 0  9998,2 55929  70.0042 324.6720 0002763 263.0380  97.0465 14.98307798 77077,6950.262,96.108,574.047,570.206,0.0
55929.0,STARLINK-5898,PAYLOAD,2024-08-07 16:51:59,14.98328366,0.0003079,70.0028,324.1661,262.9795,97.1014,8.8422e-05,9.62e-06,0.0,0 STARLINK-5898,1 55929U 23037R   24220.70277371  .00000962  00000-0  88422-4 0  9994,2 55929  70.0028 324.1661 0003079 262.9795  97.1014 14.98328366 77108,6950.198,96.107,574.203,569.923,0.0
55929.0,STARLINK-5898,PAYLOAD,2024-08-08 13:41:43,14.98357712,0.0002755,70.0031,321.9773,268.1333,91.951,0.00095201,0.00011293,0.0,0 STARLINK-5898,1 55929U 23037R   24221.57064309  .00011293  00000-0  95201-3 0  9996,2 55929  70.0031 321.9773 0002755 268.1333  91.9510 14.98357712 76892,6950.107,96.105,573.887,570.057,0.0
55929.0,STARLINK-5898,PAYLOAD,2024-08-08 16:53:59,14.98372432,0.0002773,70.0032,321.6409,266.0111,94.0732,0.0014248,0.00016967,0.0,0 STARLINK-5898,1 55929U 23037R   24221.70416062  .00016967  00000-0  14248-2 0  9992,2 55929  70.0032 321.6409 0002773 266.0111  94.0732 14.98372432 77254,6950.062,96.104,573.854,569.999,0.0
55929.0,STARLINK-5898,PAYLOAD,2024-08-09 12:07:35,14.98352534,0.0003045,70.0026,319.6231,261.61,98.4714,0.0012742,0.00015152,0.0,0 STARLINK-5898,1 55929U 23037R   24222.50527275  .00015152  00000-0  12742-2 0  9992,2 55929  70.0026 319.6231 0003045 261.6100  98.4714 14.98352534 77371,6950.123,96.106,574.105,569.872,0.0
55929.0,STARLINK-5898,PAYLOAD,2024-08-09 13:43:43,14.98360198,0.0003247,70.002,319.4529,257.8646,102.2149,0.00052557,6.189e-05,0.0,0 STARLINK-5898,1 55929U 23037R   24222.57202960  .00006189  00000-0  52557-3 0  9999,2 55929  70.0020 319.4529 0003247 257.8646 102.2149 14.98360198 77044,6950.1,96.105,574.221,569.708,0.0
55929.0,STARLINK-5898,PAYLOAD,2024-08-09 15:19:51,14.9836099,0.0003274,70.0022,319.2838,261.0733,99.0055,0.00064371,7.602e-05,0.0,0 STARLINK-5898,1 55929U 23037R   24222.63878913  .00007602  00000-0  64371-3 0  9991,2 55929  70.0022 319.2838 0003274 261.0733  99.0055 14.98360990 77051,6950.097,96.105,574.238,569.687,0.0
55929.0,STARLINK-5898,PAYLOAD,2024-08-10 12:09:36,14.98329184,0.0002941,70.0027,317.0942,268.5478,91.5345,0.00042669,5.002e-05,0.0,0 STARLINK-5898,1 55929U 23037R   24223.50667652  .00005002  00000-0  42669-3 0  9992,2 55929  70.0027 317.0942 0002941 268.5478  91.5345 14.98329184 77527,6950.195,96.107,574.104,570.016,0.0
55929.0,STARLINK-5898,PAYLOAD,2024-08-10 13:45:44,14.98332571,0.0002741,70.0026,316.9257,268.1644,91.9202,0.000466,5.472e-05,0.0,0 STARLINK-5898,1 55929U 23037R   24223.57343591  .00005472  00000-0  46600-3 0  9992,2 55929  70.0026 316.9257 0002741 268.1644  91.9202 14.98332571 77195,6950.185,96.107,573.955,570.145,0.0
55929.0,STARLINK-5898,PAYLOAD,2024-08-10 15:21:52,14.98334131,0.0002733,70.0026,316.7575,268.2198,91.8648,0.00054653,6.435e-05,0.0,0 STARLINK-5898,1 55929U 23037R   24223.64019575  .00006435  00000-0  54653-3 0  9999,2 55929  70.0026 316.7575 0002733 268.2198  91.8648 14.98334131 77201,6950.18,96.107,573.945,570.146,0.0
55929.0,STARLINK-5898,PAYLOAD,2024-08-11 12:11:37,14.98338011,0.0002739,70.0025,314.5705,263.9555,96.1292,0.00081149,9.605e-05,0.0,0 STARLINK-5898,1 55929U 23037R   24224.50807808  .00009605  00000-0  81149-3 0  9991,2 55929  70.0025 314.5705 0002739 263.9555  96.1292 14.98338011 77671,6950.168,96.106,573.937,570.129,0.0
55929.0,STARLINK-5898,PAYLOAD,2024-08-12 12:13:37,14.98376531,0.0003059,70.0012,312.0428,262.6268,97.4544,0.002225,0.00026588,0.0,0 STARLINK-5898,1 55929U 23037R   24225.50946601  .00026588  00000-0  22250-2 0  9993,2 55929  70.0012 312.0428 0003059 262.6268  97.4544 14.98376531 77825,6950.049,96.104,574.04,569.788,0.0
55929.0,STARLINK-5898,PAYLOAD,2024-08-12 15:25:53,14.98387737,0.0002773,70.0019,311.7071,262.4693,97.6152,0.0023944,0.00028636,0.0,0 STARLINK-5898,1 55929U 23037R   24225.64298081  .00028636  00000-0  23944-2 0  9997,2 55929  70.0019 311.7071 0002773 262.4693  97.6152 14.98387737 77506,6950.014,96.103,573.807,569.952,0.0
55929.0,STARLINK-5898,PAYLOAD,2024-08-13 05:51:06,14.9836615,0.0001106,70.0021,310.1938,3.4867,356.63,0.00086197,0.00010216,0.0,0 STARLINK-5898,1 55929U 23037R   24226.24382307  .00010216  00000-0  86197-3 0  9994,2 55929  70.0021 310.1938 0001106   3.4867 356.6300 14.98366150 77935,6950.081,96.105,572.715,571.177,0.0
55929.0,STARLINK-5898,PAYLOAD,2024-08-13 12:15:38,14.98309577,0.0002891,70.0015,309.5179,277.0959,82.9871,0.00024628,2.845e-05,0.0,0 STARLINK-5898,1 55929U 23037R   24226.51086676  .00002845  00000-0  24628-3 0  9994,2 55929  70.0015 309.5179 0002891 277.0959  82.9871 14.98309577 77976,6950.256,96.108,574.13,570.112,0.0
55929.0,STARLINK-5898,PAYLOAD,2024-08-13 15:27:55,14.98318941,0.0002862,70.0014,309.1815,275.3996,84.6836,-0.00053523,-6.471e-05,0.0,0 STARLINK-5898,1 55929U 23037R   24226.64438658 -.00006471  00000-0 -53523-3 0  9996,2 55929  70.0014 309.1815 0002862 275.3996  84.6836 14.98318941 77658,6950.227,96.108,574.081,570.103,0.0
55929.0,STARLINK-5898,PAYLOAD,2024-08-14 05:53:09,14.98300426,0.0002669,70.0018,307.6664,277.699,82.3866,0.00040329,4.719e-05,0.0,0 STARLINK-5898,1 55929U 23037R   24227.24524381  .00004719  00000-0  40329-3 0  9993,2 55929  70.0018 307.6664 0002669 277.6990  82.3866 14.98300426 78086,6950.284,96.109,574.004,570.294,0.0
